SAR-LUPE 2              
1 31797U 07030A   26115.49865258  .00028360  00000+0  61403-3 0  9994
2 31797  98.0987 213.6998 0009869 298.6643  61.3611 15.44377463 48798
SAPPHIRE                
1 39088U 13009C   26115.73602044  .00000086  00000+0  45113-4 0  9993
2 39088  98.4252 296.4400 0012070  49.6067 310.6170 14.35225791689052
PRAETORIAN SDA_602      
1 65565U 25203A   26115.33482522  .00000166  00000+0  13807-3 0  9997
2 65565  81.3036  59.7213 0005896 348.6764  11.4259 13.84335472 31380
PRAETORIAN SDA_603      
1 65566U 25203B   26115.34483862  .00000243  00000+0  20815-3 0  9990
2 65566  81.3043  59.5902 0009411 344.2729  15.8134 13.83897120 31395
PRAETORIAN SDA_604      
1 65567U 25203C   26115.33173723  .00000023  00000+0  99963-5 0  9990
2 65567  81.3056  59.9338 0005658 356.6429   3.4688 13.83038841 31372
PRAETORIAN SDA_605      
1 65568U 25203D   26115.31187517  .00000080  00000+0  62233-4 0  9997
2 65568  81.3021  59.6671 0008053 341.4053  18.6808 13.83426529 31386
PRAETORIAN SDA_606      
1 65569U 25203E   26115.36804080  .00000114  00000+0  92381-4 0  9999
2 65569  81.3059  59.8191 0005787 346.0912  14.0084 13.83534214 31380
PRAETORIAN SDA_607      
1 65570U 25203F   26115.33513760  .00000283  00000+0  24308-3 0  9990
2 65570  81.3042  59.5890 0008813 344.6895  15.3993 13.84319581 31397
PRAETORIAN SDA_608      
1 65571U 25203G   26115.36676411  .00000070  00000+0  52100-4 0  9993
2 65571  81.3010  59.7006 0006121 354.2817   5.8268 13.83808398 31381
PRAETORIAN SDA_609      
1 65572U 25203H   26115.31748023  .00000308  00000+0  26552-3 0  9993
2 65572  81.3055  59.7441 0006819 345.8357  14.2608 13.84303507 31388
PRAETORIAN SDA_610      
1 65573U 25203J   26115.34924031  .00000048  00000+0  32374-4 0  9993
2 65573  81.3011  59.6801 0006513 349.7449  10.3573 13.83914585 31387
PRAETORIAN SDA_611      
1 65574U 25203K   26115.32794398  .00000075  00000+0  57107-4 0  9994
2 65574  81.3009  59.8186 0005845 359.3659   0.7489 13.83302106 31378
PRAETORIAN SDA_612      
1 65575U 25203L   26115.31124383  .00000237  00000+0  19952-3 0  9990
2 65575  81.3029  59.5501 0009188 343.4964  16.5893 13.85031078 31391
PRAETORIAN SDA_613      
1 65576U 25203M   26115.82373218  .00000057  00000+0  41223-4 0  9997
2 65576  81.3004  59.3236 0005734 350.7922   9.3128 13.82946392 31444
PRAETORIAN SDA_614      
1 65577U 25203N   26115.86853525  .00000068  00000+0  50040-4 0  9995
2 65577  81.3019  59.0984 0007014 343.0820  17.0102 13.84770741 31479
PRAETORIAN SDA_615      
1 65578U 25203P   26115.83248764  .00000204  00000+0  17179-3 0  9993
2 65578  81.3029  59.0628 0008897 341.0566  19.0258 13.84427998 31467
PRAETORIAN SDA_616      
1 65579U 25203Q   26115.83298800  .00000318  00000+0  27898-3 0  9995
2 65579  81.3069  59.4642 0005575 357.7446   2.3684 13.83317394 31446
PRAETORIAN SDA_617      
1 65580U 25203R   26115.84989700  .00000069  00000+0  52150-4 0  9997
2 65580  81.3041  59.2842 0007365 343.3950  16.6964 13.83197023 31453
PRAETORIAN SDA_618      
1 65581U 25203S   26115.81001963  .00000246  00000+0  20794-3 0  9996
2 65581  81.3030  59.0377 0009382 342.1538  17.9288 13.84767225 31465
PRAETORIAN SDA_619      
1 65582U 25203T   26115.81415433  .00000253  00000+0  21776-3 0  9997
2 65582  81.3052  59.2502 0007777 341.3351  18.7519 13.83936913 32088
PRAETORIAN SDA_620      
1 65583U 25203U   26115.83155772  .00000213  00000+0  18211-3 0  9993
2 65583  81.3034  59.2409 0007399 339.0596  21.0256 13.83612453 31455
PRAETORIAN SDA_621      
1 65584U 25203V   26115.81221782  .00000086  00000+0  67425-4 0  9997
2 65584  81.3025  59.1964 0007153 337.4520  22.6321 13.83792863 31452
PRAETORIAN SDA_601      
1 65585U 25203W   26115.83531389  .00000358  00000+0  31448-3 0  9994
2 65585  81.3039  59.4199 0005642 357.7316   2.3814 13.83423486 31443
